NORAD_CAT_ID,OBJECT_NAME,OBJECT_TYPE,EPOCH,MEAN_MOTION,ECCENTRICITY,INCLINATION,RA_OF_ASC_NODE,ARG_OF_PERICENTER,MEAN_ANOMALY,BSTAR,MEAN_MOTION_DOT,MEAN_MOTION_DDOT,TLE_LINE0,TLE_LINE1,TLE_LINE2,SEMIMAJOR_AXIS,PERIOD,APOGEE,PERIGEE,DECAYED
53398.0,STARLINK-4512,PAYLOAD,2023-12-05 17:24:36,15.08837843,0.0001538,53.2171,227.5284,83.4791,276.6376,0.00012672,1.729e-05,0.0,0 STARLINK-4512,1 53398U 22097L   23339.72542234  .00001729  00000-0  12672-3 0  9997,2 53398  53.2171 227.5284 0001538  83.4791 276.6376 15.08837843 73484,6917.887,95.438,540.816,538.688,0.0
53398.0,STARLINK-4512,PAYLOAD,2023-12-06 02:56:55,15.08843712,0.0001423,53.217,225.7452,91.519,268.5965,6.2732e-05,7.11e-06,0.0,0 STARLINK-4512,1 53398U 22097L   23340.12285915  .00000711  00000-0  62732-4 0  9996,2 53398  53.2170 225.7452 0001423  91.5190 268.5965 15.08843712 74034,6917.869,95.437,540.718,538.75,0.0
53398.0,STARLINK-4512,PAYLOAD,2023-12-06 22:01:32,15.08855031,0.0001394,53.2195,222.1714,110.7893,249.3249,-0.00025699,-4.377e-05,0.0,0 STARLINK-4512,1 53398U 22097L   23340.91773906 -.00004377  00000-0 -25699-3 0  9999,2 53398  53.2195 222.1714 0001394 110.7893 249.3249 15.08855031 74156,6917.834,95.437,540.664,538.735,0.0
53398.0,STARLINK-4512,PAYLOAD,2023-12-07 01:12:19,15.08843456,0.0001329,53.2177,221.5812,101.0419,259.0723,-5.7118e-05,-1.197e-05,0.0,0 STARLINK-4512,1 53398U 22097L   23341.05022051 -.00001197  00000-0 -57118-4 0  9992,2 53398  53.2177 221.5812 0001329 101.0419 259.0723 15.08843456 73683,6917.87,95.437,540.654,538.815,0.0
53398.0,STARLINK-4512,PAYLOAD,2023-12-08 01:03:05,15.08868291,0.0001136,53.2166,217.1204,109.3513,250.7602,-0.00039855,-6.63e-05,0.0,0 STARLINK-4512,1 53398U 22097L   23342.04381283 -.00006630  00000-0 -39855-3 0  9991,2 53398  53.2166 217.1204 0001136 109.3513 250.7602 15.08868291 73834,6917.794,95.436,540.445,538.873,0.0
53398.0,STARLINK-4512,PAYLOAD,2023-12-09 15:12:21,15.08845406,0.0001509,53.2166,209.9842,89.8668,270.2497,5.7002e-05,6.19e-06,0.0,0 STARLINK-4512,1 53398U 22097L   23343.63357652  .00000619  00000-0  57002-4 0  9994,2 53398  53.2166 209.9842 0001509  89.8668 270.2497 15.08845406 74077,6917.864,95.437,540.773,538.685,0.0
53398.0,STARLINK-4512,PAYLOAD,2023-12-10 19:49:17,15.08842638,0.0001306,53.2181,204.628,105.0239,255.0898,4.8361e-05,4.82e-06,0.0,0 STARLINK-4512,1 53398U 22097L   23344.82589729  .00000482  00000-0  48361-4 0  9994,2 53398  53.2181 204.6280 0001306 105.0239 255.0898 15.08842638 74252,6917.872,95.437,540.641,538.834,0.0
53398.0,STARLINK-4512,PAYLOAD,2023-12-10 21:24:40,15.08842615,0.0001359,53.2171,204.3314,100.9677,259.1468,4.5658e-05,4.39e-06,0.0,0 STARLINK-4512,1 53398U 22097L   23344.89213700  .00000439  00000-0  45658-4 0  9992,2 53398  53.2171 204.3314 0001359 100.9677 259.1468 15.08842615 74752,6917.872,95.437,540.678,538.797,0.0
53398.0,STARLINK-4512,PAYLOAD,2023-12-11 18:04:41,15.08837264,0.0001585,53.217,200.4695,107.1076,253.009,1.2074e-05,-9.6e-07,0.0,0 STARLINK-4512,1 53398U 22097L   23345.75326134 -.00000096  00000-0  12074-4 0  9990,2 53398  53.2170 200.4695 0001585 107.1076 253.0090 15.08837264 74391,6917.889,95.438,540.85,538.657,0.0
53398.0,STARLINK-4512,PAYLOAD,2023-12-11 21:15:27,15.08837833,0.0001587,53.2171,199.8755,104.7522,255.3646,1.5323e-05,-4.4e-07,0.0,0 STARLINK-4512,1 53398U 22097L   23345.88574074 -.00000044  00000-0  15323-4 0  9995,2 53398  53.2171 199.8755 0001587 104.7522 255.3646 15.08837833 74902,6917.887,95.438,540.85,538.654,0.0
53398.0,STARLINK-4512,PAYLOAD,2023-12-12 19:30:51,15.08837296,0.0001629,53.2174,195.7132,107.3984,252.7187,4.8474e-05,4.83e-06,0.0,0 STARLINK-4512,1 53398U 22097L   23346.81310173  .00000483  00000-0  48474-4 0  9996,2 53398  53.2174 195.7132 0001629 107.3984 252.7187 15.08837296 74552,6917.889,95.438,540.881,538.627,0.0
53398.0,STARLINK-4512,PAYLOAD,2023-12-13 19:21:37,15.08855009,0.0001683,53.2173,191.2537,110.2508,249.8665,0.00017831,2.552e-05,0.0,0 STARLINK-4512,1 53398U 22097L   23347.80668610  .00002552  00000-0  17831-3 0  9999,2 53398  53.2173 191.2537 0001683 110.2508 249.8665 15.08855009 74703,6917.835,95.437,540.864,538.535,0.0
53398.0,STARLINK-4512,PAYLOAD,2023-12-13 20:57:00,15.08855885,0.0001517,53.2167,190.9546,99.975,260.1413,0.00018288,2.625e-05,0.0,0 STARLINK-4512,1 53398U 22097L   23347.87292510  .00002625  00000-0  18288-3 0  9996,2 53398  53.2167 190.9546 0001517  99.9750 260.1413 15.08855885 75205,6917.832,95.437,540.746,538.647,0.0
53398.0,STARLINK-4512,PAYLOAD,2023-12-14 20:47:49,15.08839951,0.000124,53.2161,186.4949,96.8433,263.27,-1.6059e-05,-5.43e-06,0.0,0 STARLINK-4512,1 53398U 22097L   23348.86654028 -.00000543  00000-0 -16059-4 0  9996,2 53398  53.2161 186.4949 0001240  96.8433 263.2700 15.08839951 74863,6917.881,95.438,540.603,538.888,0.0
53398.0,STARLINK-4512,PAYLOAD,2023-12-15 19:03:13,15.08836452,0.0001501,53.2164,182.3305,91.9045,268.2119,-0.00017622,-3.091e-05,0.0,0 STARLINK-4512,1 53398U 22097L   23349.79391194 -.00003091  00000-0 -17622-3 0  9998,2 53398  53.2164 182.3305 0001501  91.9045 268.2119 15.08836452 75001,6917.891,95.438,540.795,538.718,0.0
53398.0,STARLINK-4512,PAYLOAD,2023-12-15 20:38:37,15.08836237,0.0001498,53.2164,182.0332,90.1986,269.9178,-0.00017262,-3.034e-05,0.0,0 STARLINK-4512,1 53398U 22097L   23349.86015211 -.00003034  00000-0 -17262-3 0  9996,2 53398  53.2164 182.0332 0001498  90.1986 269.9178 15.08836237 75507,6917.892,95.438,540.793,538.721,0.0
53398.0,STARLINK-4512,PAYLOAD,2023-12-16 20:29:24,15.08827211,0.0001688,53.2169,177.5723,74.6906,285.4272,5.5238e-05,5.91e-06,0.0,0 STARLINK-4512,1 53398U 22097L   23350.85375816  .00000591  00000-0  55238-4 0  9996,2 53398  53.2169 177.5723 0001688  74.6906 285.4272 15.08827211 75651,6917.919,95.438,540.952,538.617,0.0
53398.0,STARLINK-4512,PAYLOAD,2023-12-17 18:44:48,15.08831962,0.0001616,53.2163,173.4098,79.7234,280.394,0.00012353,1.678e-05,0.0,0 STARLINK-4512,1 53398U 22097L   23351.78112013  .00001678  00000-0  12353-3 0  9994,2 53398  53.2163 173.4098 0001616  79.7234 280.3940 15.08831962 75795,6917.905,95.438,540.888,538.652,0.0
53398.0,STARLINK-4512,PAYLOAD,2023-12-18 12:14:02,15.08842825,0.0001528,53.2159,170.1376,84.6857,275.431,0.00013072,1.793e-05,0.0,0 STARLINK-4512,1 53398U 22097L   23352.50975523  .00001793  00000-0  13072-3 0  9995,2 53398  53.2159 170.1376 0001528  84.6857 275.4310 15.08842825 75416,6917.872,95.437,540.794,538.68,0.0
53398.0,STARLINK-4512,PAYLOAD,2023-12-18 18:35:35,15.08845434,0.0001447,53.2156,168.9503,90.7909,269.3249,0.00014765,2.063e-05,0.0,0 STARLINK-4512,1 53398U 22097L   23352.77471263  .00002063  00000-0  14765-3 0  9997,2 53398  53.2156 168.9503 0001447  90.7909 269.3249 15.08845434 75946,6917.864,95.437,540.73,538.728,0.0
53398.0,STARLINK-4512,PAYLOAD,2023-12-19 18:26:21,15.08850066,0.000144,53.2165,164.4874,95.2451,264.8705,8.1181e-05,1.005e-05,0.0,0 STARLINK-4512,1 53398U 22097L   23353.76830818  .00001005  00000-0  81181-4 0  9994,2 53398  53.2165 164.4874 0001440  95.2451 264.8705 15.08850066 75600,6917.85,95.437,540.711,538.718,0.0
53398.0,STARLINK-4512,PAYLOAD,2023-12-20 18:17:09,15.08842124,0.0001466,53.2171,160.0266,92.5542,267.5618,-3.3832e-05,-8.26e-06,0.0,0 STARLINK-4512,1 53398U 22097L   23354.76191300 -.00000826  00000-0 -33832-4 0  9993,2 53398  53.2171 160.0266 0001466  92.5542 267.5618 15.08842124 75758,6917.874,95.437,540.753,538.725,0.0
53398.0,STARLINK-4512,PAYLOAD,2023-12-21 14:57:09,15.08842739,0.0001421,53.2168,156.1601,93.0572,267.0583,2.8413e-05,1.64e-06,0.0,0 STARLINK-4512,1 53398U 22097L   23355.62302913  .00000164  00000-0  28413-4 0  9995,2 53398  53.2168 156.1601 0001421  93.0572 267.0583 15.08842739 76370,6917.872,95.437,540.72,538.754,0.0
53398.0,STARLINK-4512,PAYLOAD,2023-12-22 17:58:43,15.08841252,0.000131,53.217,151.1071,82.098,278.0161,6.4454e-05,7.38e-06,0.0,0 STARLINK-4512,1 53398U 22097L   23356.74910993  .00000738  00000-0  64454-4 0  9994,2 53398  53.2170 151.1071 0001310  82.0980 278.0161 15.08841252 76055,6917.877,95.437,540.648,538.835,0.0
53398.0,STARLINK-4512,PAYLOAD,2023-12-23 14:38:42,15.08858617,0.0001154,53.2169,147.2428,89.1428,270.9697,0.00018401,2.643e-05,0.0,0 STARLINK-4512,1 53398U 22097L   23357.61020880  .00002643  00000-0  18401-3 0  9995,2 53398  53.2169 147.2428 0001154  89.1428 270.9697 15.08858617 76672,6917.823,95.436,540.487,538.89,0.0
53398.0,STARLINK-4512,PAYLOAD,2023-12-23 19:24:53,15.08832284,0.0001355,53.2175,146.3489,77.107,283.0073,-5.0466e-05,-1.091e-05,0.0,0 STARLINK-4512,1 53398U 22097L   23357.80895020 -.00001091  00000-0 -50466-4 0  9998,2 53398  53.2175 146.3489 0001355  77.1070 283.0073 15.08832284 76214,6917.904,95.438,540.706,538.832,0.0
53398.0,STARLINK-4512,PAYLOAD,2023-12-24 14:29:31,15.08832301,0.0001349,53.2176,142.7796,79.9388,280.1756,-4.9218e-05,-1.071e-05,0.0,0 STARLINK-4512,1 53398U 22097L   23358.60383272 -.00001071  00000-0 -49218-4 0  9999,2 53398  53.2176 142.7796 0001349  79.9388 280.1756 15.08832301 76824,6917.904,95.438,540.702,538.836,0.0
53398.0,STARLINK-4512,PAYLOAD,2023-12-24 16:04:54,15.08838598,0.0001357,53.2178,142.4806,85.2568,274.8579,-6.8252e-05,-1.374e-05,0.0,0 STARLINK-4512,1 53398U 22097L   23358.67006951 -.00001374  00000-0 -68252-4 0  9997,2 53398  53.2178 142.4806 0001357  85.2568 274.8579 15.08838598 76832,6917.885,95.438,540.688,538.811,0.0
53398.0,STARLINK-4512,PAYLOAD,2023-12-25 09:34:08,15.0882079,0.0001498,53.2166,139.2132,75.6831,284.4328,0.00014718,2.054e-05,0.0,0 STARLINK-4512,1 53398U 22097L   23359.39871347  .00002054  00000-0  14718-3 0  9997,2 53398  53.2166 139.2132 0001498  75.6831 284.4328 15.08820790 76459,6917.939,95.439,540.84,538.768,0.0
53398.0,STARLINK-4512,PAYLOAD,2023-12-25 14:20:18,15.08821383,0.0001486,53.2168,138.3172,117.1725,242.9419,7.3006e-05,8.74e-06,0.0,0 STARLINK-4512,1 53398U 22097L   23359.59743564  .00000874  00000-0  73006-4 0  9992,2 53398  53.2168 138.3172 0001486 117.1725 242.9419 15.08821383 76972,6917.937,95.439,540.83,538.774,0.0
